{
  "links" : {
    "next" : "https://api.nasa.gov/neo/rest/v1/feed?start_date=2013-09-09&end_date=2013-09-09&detailed=true&api_key=t0TVs3DtDT2H8Oy2Zy8m2eVrNsAVKAexjcZXUckd",
    "prev" : "https://api.nasa.gov/neo/rest/v1/feed?start_date=2013-09-07&end_date=2013-09-07&detailed=true&api_key=t0TVs3DtDT2H8Oy2Zy8m2eVrNsAVKAexjcZXUckd",
    "self" : "https://api.nasa.gov/neo/rest/v1/feed?start_date=2013-09-08&end_date=2013-09-08&detailed=true&api_key=t0TVs3DtDT2H8Oy2Zy8m2eVrNsAVKAexjcZXUckd"
  },
  "element_count" : 8,
  "near_earth_objects" : {
    "2013-09-08" : [ {
      "links" : {
        "self" : "https://api.nasa.gov/neo/rest/v1/neo/3704769?api_key=t0TVs3DtDT2H8Oy2Zy8m2eVrNsAVKAexjcZXUckd"
      },
      "neo_reference_id" : "3704769",
      "name" : "(2015 BG92)",
      "nasa_jpl_url" : "http://ssd.jpl.nasa.gov/sbdb.cgi?sstr=3704769",
      "absolute_magnitude_h" : 25.1,
      "estimated_diameter" : {
        "kilometers" : {
          "estimated_diameter_min" : 0.0253837029,
          "estimated_diameter_max" : 0.0567596853
        },
        "meters" : {
          "estimated_diameter_min" : 25.3837029364,
          "estimated_diameter_max" : 56.7596852866
        },
        "miles" : {
          "estimated_diameter_min" : 0.0157726969,
          "estimated_diameter_max" : 0.0352688224
        },
        "feet" : {
          "estimated_diameter_min" : 83.279867942,
          "estimated_diameter_max" : 186.2194458756
        }
      },
      "is_potentially_hazardous_asteroid" : false,
      "close_approach_data" : [ {
        "close_approach_date" : "2013-09-08",
        "epoch_date_close_approach" : 1378623600000,
        "relative_velocity" : {
          "kilometers_per_second" : "15.4163279069",
          "kilometers_per_hour" : "55498.780464755",
          "miles_per_hour" : "34484.7838948918"
        },
        "miss_distance" : {
          "astronomical" : "0.4965278559",
          "lunar" : "193.1493377686",
          "kilometers" : "74279512",
          "miles" : "46155148"
        },
        "orbiting_body" : "Earth"
      } ],
      "orbital_data" : {
        "orbit_id" : "26",
        "orbit_determination_date" : "2017-04-06 08:36:12",
        "orbit_uncertainty" : "4",
        "minimum_orbit_intersection" : ".0308283",
        "jupiter_tisserand_invariant" : "5.841",
        "epoch_osculation" : "2458000.5",
        "eccentricity" : ".05531891852729646",
        "semi_major_axis" : "1.050842491709634",
        "inclination" : "7.762509820299807",
        "ascending_node_longitude" : "311.8918610560445",
        "orbital_period" : "393.463875378994",
        "perihelion_distance" : ".9927110215257277",
        "perihelion_argument" : "124.5275990658668",
        "aphelion_distance" : "1.108973961893541",
        "perihelion_time" : "2458180.183713936300",
        "mean_anomaly" : "195.5982821681891",
        "mean_motion" : ".9149505774913624",
        "equinox" : "J2000"
      }
    }, {
      "links" : {
        "self" : "https://api.nasa.gov/neo/rest/v1/neo/3771028?api_key=t0TVs3DtDT2H8Oy2Zy8m2eVrNsAVKAexjcZXUckd"
      },
      "neo_reference_id" : "3771028",
      "name" : "(2017 EJ3)",
      "nasa_jpl_url" : "http://ssd.jpl.nasa.gov/sbdb.cgi?sstr=3771028",
      "absolute_magnitude_h" : 23.1,
      "estimated_diameter" : {
        "kilometers" : {
          "estimated_diameter_min" : 0.063760979,
          "estimated_diameter_max" : 0.1425738833
        },
        "meters" : {
          "estimated_diameter_min" : 63.7609789875,
          "estimated_diameter_max" : 142.5738833281
        },
        "miles" : {
          "estimated_diameter_min" : 0.0396192233,
          "estimated_diameter_max" : 0.0885912765
        },
        "feet" : {
          "estimated_diameter_min" : 209.1895703015,
          "estimated_diameter_max" : 467.7620993781
        }
      },
      "is_potentially_hazardous_asteroid" : false,
      "close_approach_data" : [ {
        "close_approach_date" : "2013-09-08",
        "epoch_date_close_approach" : 1378623600000,
        "relative_velocity" : {
          "kilometers_per_second" : "7.3371272559",
          "kilometers_per_hour" : "26413.6581211133",
          "miles_per_hour" : "16412.419958644"
        },
        "miss_distance" : {
          "astronomical" : "0.3726625072",
          "lunar" : "144.965713501",
          "kilometers" : "55749520",
          "miles" : "34641144"
        },
        "orbiting_body" : "Earth"
      } ],
      "orbital_data" : {
        "orbit_id" : "7",
        "orbit_determination_date" : "2017-04-06 08:19:36",
        "orbit_uncertainty" : "7",
        "minimum_orbit_intersection" : ".185582",
        "jupiter_tisserand_invariant" : "5.036",
        "epoch_osculation" : "2458000.5",
        "eccentricity" : ".1630454199779137",
        "semi_major_axis" : "1.274750791591646",
        "inclination" : "12.4031141511102",
        "ascending_node_longitude" : "2.750516642727589",
        "orbital_period" : "525.6980455096788",
        "perihelion_distance" : "1.066908513409408",
        "perihelion_argument" : "94.98819466827059",
        "aphelion_distance" : "1.482593069773883",
        "perihelion_time" : "2457743.191154311109",
        "mean_anomaly" : "176.2060658950945",
        "mean_motion" : ".6848037634436515",
        "equinox" : "J2000"
      }
    }, {
      "links" : {
        "self" : "https://api.nasa.gov/neo/rest/v1/neo/3769886?api_key=t0TVs3DtDT2H8Oy2Zy8m2eVrNsAVKAexjcZXUckd"
      },
      "neo_reference_id" : "3769886",
      "name" : "(2017 DA36)",
      "nasa_jpl_url" : "http://ssd.jpl.nasa.gov/sbdb.cgi?sstr=3769886",
      "absolute_magnitude_h" : 25.1,
      "estimated_diameter" : {
        "kilometers" : {
          "estimated_diameter_min" : 0.0253837029,
          "estimated_diameter_max" : 0.0567596853
        },
        "meters" : {
          "estimated_diameter_min" : 25.3837029364,
          "estimated_diameter_max" : 56.7596852866
        },
        "miles" : {
          "estimated_diameter_min" : 0.0157726969,
          "estimated_diameter_max" : 0.0352688224
        },
        "feet" : {
          "estimated_diameter_min" : 83.279867942,
          "estimated_diameter_max" : 186.2194458756
        }
      },
      "is_potentially_hazardous_asteroid" : false,
      "close_approach_data" : [ {
        "close_approach_date" : "2013-09-08",
        "epoch_date_close_approach" : 1378623600000,
        "relative_velocity" : {
          "kilometers_per_second" : "6.3867210702",
          "kilometers_per_hour" : "22992.1958527257",
          "miles_per_hour" : "14286.4563619339"
        },
        "miss_distance" : {
          "astronomical" : "0.3594863677",
          "lunar" : "139.8401947021",
          "kilometers" : "53778396",
          "miles" : "33416346"
        },
        "orbiting_body" : "Earth"
      } ],
      "orbital_data" : {
        "orbit_id" : "18",
        "orbit_determination_date" : "2017-05-11 06:16:46",
        "orbit_uncertainty" : "6",
        "minimum_orbit_intersection" : ".00292489",
        "jupiter_tisserand_invariant" : "5.205",
        "epoch_osculation" : "2458000.5",
        "eccentricity" : ".2644321732430422",
        "semi_major_axis" : "1.217063318762408",
        "inclination" : "4.586140451172851",
        "ascending_node_longitude" : "167.4384552208179",
        "orbital_period" : "490.4200157130198",
        "perihelion_distance" : ".8952326204076746",
        "perihelion_argument" : "59.9088386639595",
        "aphelion_distance" : "1.538894017117141",
        "perihelion_time" : "2457870.692472876494",
        "mean_anomaly" : "95.28711770974607",
        "mean_motion" : ".7340646557351403",
        "equinox" : "J2000"
      }
    } ]
  }
}